NORAD_CAT_ID,OBJECT_NAME,OBJECT_TYPE,EPOCH,MEAN_MOTION,ECCENTRICITY,INCLINATION,RA_OF_ASC_NODE,ARG_OF_PERICENTER,MEAN_ANOMALY,BSTAR,MEAN_MOTION_DOT,MEAN_MOTION_DDOT,TLE_LINE0,TLE_LINE1,TLE_LINE2,SEMIMAJOR_AXIS,PERIOD,APOGEE,PERIGEE,DECAYED
53563.0,STARLINK-4561,PAYLOAD,2022-12-10 11:12:16,15.08826017,0.0002242,53.2167,335.006,35.7093,324.4049,-0.00016467,-2.907e-05,0.0,0 STARLINK-4561,1 53563U 22101AN  22344.46685522 -.00002907  00000-0 -16467-3 0  9998,2 53563  53.2167 335.0060 0002242  35.7093 324.4049 15.08826017 17510,6917.9230000000025,95.438,541.339,538.237,0.0
53563.0,STARLINK-4561,PAYLOAD,2022-12-10 14:23:02,15.08832462,0.0002114,53.2168,334.4138,38.011,322.1031,-0.00017603,-3.088e-05,0.0,0 STARLINK-4561,1 53563U 22101AN  22344.59933249 -.00003088  00000-0 -17603-3 0  9998,2 53563  53.2168 334.4138 0002114  38.0110 322.1031 15.08832462 17533,6917.903,95.438,541.231,538.306,0.0
53563.0,STARLINK-4561,PAYLOAD,2022-12-11 03:06:06,15.08847434,0.0002886,53.2178,332.0351,20.6421,339.4687,-0.00023283,-3.993e-05,0.0,0 STARLINK-4561,1 53563U 22101AN  22345.12924718 -.00003993  00000-0 -23283-3 0  9995,2 53563  53.2178 332.0351 0002886  20.6421 339.4687 15.08847434 17615,6917.858,95.437,541.719,537.726,0.0
53563.0,STARLINK-4561,PAYLOAD,2022-12-11 09:27:39,15.08838792,0.0002115,53.2169,330.8405,36.0866,324.0269,7.4575e-05,8.99e-06,0.0,0 STARLINK-4561,1 53563U 22101AN  22345.39420282  .00000899  00000-0  74575-4 0  9992,2 53563  53.2169 330.8405 0002115  36.0866 324.0269 15.08838792 17657,6917.884,95.438,541.212,538.286,0.0
53563.0,STARLINK-4561,PAYLOAD,2022-12-12 09:18:26,15.08833338,0.0002113,53.2165,326.3802,40.6156,319.4993,0.00018223,2.613e-05,0.0,0 STARLINK-4561,1 53563U 22101AN  22346.38780686  .00002613  00000-0  18223-3 0  9992,2 53563  53.2165 326.3802 0002113  40.6156 319.4993 15.08833338 17805,6917.901,95.438,541.2280000000002,538.304,0.0
53563.0,STARLINK-4561,PAYLOAD,2022-12-13 07:33:51,15.08837948,0.00021,53.2164,322.2174,40.5462,319.5687,-8.907e-05,-1.705e-05,0.0,0 STARLINK-4561,1 53563U 22101AN  22347.31517467 -.00001705  00000-0 -89070-4 0  9993,2 53563  53.2164 322.2174 0002100  40.5462 319.5687 15.08837948 17943,6917.887,95.438,541.2040000000002,538.299,0.0
53563.0,STARLINK-4561,PAYLOAD,2022-12-14 02:38:27,15.08850964,0.000201,53.2158,318.6489,37.9848,322.1285,-3.7183e-05,-8.8e-06,0.0,0 STARLINK-4561,1 53563U 22101AN  22348.11004158 -.00000880  00000-0 -37183-4 0  9991,2 53563  53.2158 318.6489 0002010  37.9848 322.1285 15.08850964 18063,6917.847,95.437,541.102,538.321,0.0
53563.0,STARLINK-4561,PAYLOAD,2022-12-14 09:00:00,15.08841726,0.0002104,53.2164,317.4593,40.2603,319.8544,1.4424000000000004e-06,-2.65e-06,0.0,0 STARLINK-4561,1 53563U 22101AN  22348.37500501 -.00000265  00000-0  14424-5 0  9992,2 53563  53.2164 317.4593 0002104  40.2603 319.8544 15.08841726 18105,6917.875,95.437,541.196,538.285,0.0
53563.0,STARLINK-4561,PAYLOAD,2022-12-14 15:21:32,15.08845034,0.000203,53.2166,316.2698,40.507,319.6073,5.2129e-05,5.42e-06,0.0,0 STARLINK-4561,1 53563U 22101AN  22348.63995997  .00000542  00000-0  52129-4 0  9998,2 53563  53.2166 316.2698 0002030  40.5070 319.6073 15.08845034 18144,6917.865,95.437,541.134,538.326,0.0
53563.0,STARLINK-4561,PAYLOAD,2022-12-15 07:15:23,15.08841342,0.0001754999999999,53.2163,313.2955,46.9691,313.1448,4.5679e-05,4.39e-06,0.0,0 STARLINK-4561,1 53563U 22101AN  22349.30236006  .00000439  00000-0  45679-4 0  9999,2 53563  53.2163 313.2955 0001755  46.9691 313.1448 15.08841342 18240,6917.876,95.437,540.955,538.5269999999998,0.0
53563.0,STARLINK-4561,PAYLOAD,2022-12-15 15:12:19,15.08838265,0.0002113,53.2172,311.8098,40.6863,319.4286,6.6338e-05,7.68e-06,0.0,0 STARLINK-4561,1 53563U 22101AN  22349.63356314  .00000768  00000-0  66338-4 0  9990,2 53563  53.2172 311.8098 0002113  40.6863 319.4286 15.08838265 18297,6917.886,95.438,541.212,538.289,0.0
53563.0,STARLINK-4561,PAYLOAD,2022-12-16 03:55:24,15.0884582,0.0001991,53.2168,309.4293,37.26,322.853,7.093e-05,8.41e-06,0.0,0 STARLINK-4561,1 53563U 22101AN  22350.16347424  .00000841  00000-0  70930-4 0  9997,2 53563  53.2168 309.4293 0001991  37.2600 322.8530 15.08845820 18370,6917.863,95.437,541.105,538.35,0.0
53563.0,STARLINK-4561,PAYLOAD,2022-12-16 07:06:10,15.08847638,0.0002007,53.2168,308.8346,38.0872,322.0262,8.334299999999999e-05,1.039e-05,0.0,0 STARLINK-4561,1 53563U 22101AN  22350.29595209  .00001039  00000-0  83343-4 0  9999,2 53563  53.2168 308.8346 0002007  38.0872 322.0262 15.08847638 18396,6917.857,95.437,541.11,538.3340000000002,0.0
53563.0,STARLINK-4561,PAYLOAD,2022-12-16 15:03:06,15.08839987,0.0001918,53.2157,307.3474,37.8392,322.2734,1.3836e-05,-6.8e-07,0.0,0 STARLINK-4561,1 53563U 22101AN  22350.62715801 -.00000068  00000-0  13836-4 0  9990,2 53563  53.2157 307.3474 0001918  37.8392 322.2734 15.08839987 18444,6917.88,95.438,541.072,538.419,0.0
53563.0,STARLINK-4561,PAYLOAD,2022-12-16 21:24:39,15.08839263,0.0002142,53.2156,306.1579,45.958,314.1588,-7.7995e-05,-1.529e-05,0.0,0 STARLINK-4561,1 53563U 22101AN  22350.89212220 -.00001529  00000-0 -77995-4 0  9996,2 53563  53.2156 306.1579 0002142  45.9580 314.1588 15.08839263 18483,6917.8830000000025,95.438,541.229,538.266,0.0
53563.0,STARLINK-4561,PAYLOAD,2022-12-17 03:46:12,15.08831423,0.0002,53.2174,304.9709,34.9565,325.1558,-4.0551e-05,-9.33e-06,0.0,0 STARLINK-4561,1 53563U 22101AN  22351.15708577 -.00000933  00000-0 -40551-4 0  9997,2 53563  53.2174 304.9709 0002000  34.9565 325.1558 15.08831423 18522,6917.906999999997,95.438,541.155,538.388,0.0
53563.0,STARLINK-4561,PAYLOAD,2022-12-17 06:56:58,15.08834585,0.0001989,53.2169,304.3753,32.1089,328.0024,-8.6301e-05,-1.661e-05,0.0,0 STARLINK-4561,1 53563U 22101AN  22351.28956566 -.00001661  00000-0 -86301-4 0  9996,2 53563  53.2169 304.3753 0001989  32.1089 328.0024 15.08834585 18549,6917.897,95.438,541.138,538.386,0.0
53563.0,STARLINK-4561,PAYLOAD,2022-12-18 06:47:45,15.08836021,0.0001989,53.2164,299.9144,36.9134,323.1994,-9.2288e-06,-4.35e-06,0.0,0 STARLINK-4561,1 53563U 22101AN  22352.28316605 -.00000435  00000-0 -92288-5 0  9991,2 53563  53.2164 299.9144 0001989  36.9134 323.1994 15.08836021 18695,6917.893,95.438,541.134,538.382,0.0
53563.0,STARLINK-4561,PAYLOAD,2022-12-18 13:09:18,15.08831641,0.000202,53.217,298.7227,41.2944,318.82,-8.410700000000001e-05,-1.626e-05,0.0,0 STARLINK-4561,1 53563U 22101AN  22352.54813288 -.00001626  00000-0 -84107-4 0  9992,2 53563  53.2170 298.7227 0002020  41.2944 318.8200 15.08831641 18735,6917.906,95.438,541.168,538.374,0.0
53563.0,STARLINK-4561,PAYLOAD,2022-12-18 21:06:14,15.08820441,0.0001699,53.2169,297.2355,46.32100000000001,313.7923,-2.0497e-05,-6.14e-06,0.0,0 STARLINK-4561,1 53563U 22101AN  22352.87933981 -.00000614  00000-0 -20497-4 0  9999,2 53563  53.2169 297.2355 0001699  46.3210 313.7923 15.08820441 18789,6917.94,95.439,540.981,538.63,0.0
53563.0,STARLINK-4561,PAYLOAD,2022-12-19 00:17:01,15.08823534,0.0001789,53.2165,296.6424,42.9689,317.1442,-3.142e-05,-7.88e-06,0.0,0 STARLINK-4561,1 53563U 22101AN  22353.01182017 -.00000788  00000-0 -31420-4 0  9992,2 53563  53.2165 296.6424 0001789  42.9689 317.1442 15.08823534 18800,6917.931,95.439,541.033,538.558,0.0
53563.0,STARLINK-4561,PAYLOAD,2022-12-20 03:18:33,15.08842142,0.0001885,53.219,291.5901,42.9337,317.1802,0.00013967,1.936e-05,0.0,0 STARLINK-4561,1 53563U 22101AN  22354.13789015  .00001936  00000-0  13967-3 0  9996,2 53563  53.2190 291.5901 0001885  42.9337 317.1802 15.08842142 18973,6917.874,95.437,541.043,538.435,0.0
53563.0,STARLINK-4561,PAYLOAD,2022-12-20 04:53:56,15.08846676,0.0001933,53.218,291.2915,41.3757,318.7381,0.00016294,2.306e-05,0.0,0 STARLINK-4561,1 53563U 22101AN  22354.20412655  .00002306  00000-0  16294-3 0  9995,2 53563  53.2180 291.2915 0001933  41.3757 318.7381 15.08846676 18983,6917.86,95.437,541.062,538.388,0.0
53563.0,STARLINK-4561,PAYLOAD,2022-12-20 19:12:26,15.0882233,0.000206,53.2194,288.6155,51.113,309.0045,4.894e-05,4.9000000000000005e-06,0.0,0 STARLINK-4561,1 53563U 22101AN  22354.80030905  .00000490  00000-0  48940-4 0  9991,2 53563  53.2194 288.6155 0002060  51.1130 309.0045 15.08822330 19072,6917.934,95.439,541.224,538.374,0.0
53563.0,STARLINK-4561,PAYLOAD,2022-12-21 01:33:58,15.08843349,0.0001743,53.2182,287.4264,56.0417,304.0741,9.8587e-05,1.281e-05,0.0,0 STARLINK-4561,1 53563U 22101AN  22355.06525569  .00001281  00000-0  98587-4 0  9996,2 53563  53.2182 287.4264 0001743  56.0417 304.0741 15.08843349 19112,6917.87,95.437,540.941,538.529,0.0
53563.0,STARLINK-4561,PAYLOAD,2022-12-21 04:44:43,15.08851005,0.0001742,53.2177,286.83,52.8318,307.2833,0.0001425,1.981e-05,0.0,0 STARLINK-4561,1 53563U 22101AN  22355.19772900  .00001981  00000-0  14250-3 0  9994,2 53563  53.2177 286.8300 0001742  52.8318 307.2833 15.08851005 19130,6917.847,95.437,540.9169999999998,538.507,0.0
53563.0,STARLINK-4561,PAYLOAD,2022-12-21 12:41:39,15.08847207,0.0001857,53.2187,285.3436,52.5894,307.5267,5.373e-05,5.67e-06,0.0,0 STARLINK-4561,1 53563U 22101AN  22355.52893318  .00000567  00000-0  53730-4 0  9994,2 53563  53.2187 285.3436 0001857  52.5894 307.5267 15.08847207 19186,6917.858,95.437,541.008,538.439,0.0
53563.0,STARLINK-4561,PAYLOAD,2022-12-22 12:32:25,15.08854952,0.0001604,53.2184,280.8826,55.0147,305.0995,-1.4513999999999996e-06,-3.11e-06,0.0,0 STARLINK-4561,1 53563U 22101AN  22356.52252224 -.00000311  00000-0 -14514-5 0  9997,2 53563  53.2184 280.8826 0001604  55.0147 305.0995 15.08854952 19338,6917.835,95.437,540.809,538.59,0.0
53563.0,STARLINK-4561,PAYLOAD,2022-12-22 18:53:59,15.08843531,0.0001626,53.2186,279.6934,56.7162,303.3986,-0.0001066,-1.984e-05,0.0,0 STARLINK-4561,1 53563U 22101AN  22356.78749520 -.00001984  00000-0 -10660-3 0  9998,2 53563  53.2186 279.6934 0001626  56.7162 303.3986 15.08843531 19371,6917.87,95.437,540.859,538.61,0.0
